CCSDS_OMM_VERS,COMMENT,CREATION_DATE,ORIGINATOR,OBJECT_NAME,OBJECT_ID,CENTER_NAME,REF_FRAME,TIME_SYSTEM,MEAN_ELEMENT_THEORY,EPOCH,MEAN_MOTION,ECCENTRICITY,INCLINATION,RA_OF_ASC_NODE,ARG_OF_PERICENTER,MEAN_ANOMALY,EPHEMERIS_TYPE,CLASSIFICATION_TYPE,NORAD_CAT_ID,ELEMENT_SET_NO,REV_AT_EPOCH,BSTAR,MEAN_MOTION_DOT,MEAN_MOTION_DDOT,SEMIMAJOR_AXIS,PERIOD,APOAPSIS,PERIAPSIS,OBJECT_TYPE,RCS_SIZE,COUNTRY_CODE,LAUNCH_DATE,SITE,DECAY_DATE,FILE,GP_ID,TLE_LINE0,TLE_LINE1,TLE_LINE2,NORAD_KEY,JCAT,DeepCat,Satcat,Piece,Active,Type,Name,LDate,Parent,Owner,State,SDate,ExpandedStatus,DDate,ODate,Period,Perigee,PF,Apogee,AF,Inc,IF,OpOrbit,SATCAT_KEY
3.0,GENERATED VIA SPACE-TRACK.ORG API,2026-05-06T10:08:52,18 SPCS,BS-3B (YURI 3B),1991-060A,EARTH,TEME,UTC,SGP4,2026-05-06T04:06:56.996064,0.98791086,0.00027838,13.396,357.3055,161.8791,28.4222,0,U,21668,999,12889,0.00000000000000,-0.00000004,0.0000000000000,42585.002,1457.621,36218.722,36195.012,PAYLOAD,LARGE,JPN,1991-08-25,TNSTA,,5176958,322264244,0 BS-3B (YURI 3B),1 21668U 91060A   26126.17149301 -.00000004  00000-0  00000-0 0  9997,2 21668  13.3960 357.3055 0002784 161.8791  28.4222  0.98791086128895,21668,S21668,-,21668,1991-060A,P,P,Yuri 3B,1991 Aug 25,S21670,JAXA/TAOJ,J,1991 Aug 25 0906,In Earth orbit,-,2026 May  5 ,    1457.619 ,   36195, ,   36218, , 13.40 , ,GEO/ID,21668
3.0,GENERATED VIA SPACE-TRACK.ORG API,2026-05-06T10:08:52,18 SPCS,RADUGA 28,1991-087A,EARTH,TEME,UTC,SGP4,2026-05-06T04:47:02.325408,1.00329073,0.00036853,13.3961,341.3627,184.7116,171.7878,0,U,21821,999,12589,0.00000000000000,0.00000119,0.0000000000000,42148.68,1435.277,35786.078,35755.012,PAYLOAD,LARGE,CIS,1991-12-19,TTMTR,,5176958,322264777,0 RADUGA 28,1 21821U 91087A   26126.19933247  .00000119  00000-0  00000-0 0  9995,2 21821  13.3961 341.3627 0003685 184.7116 171.7878  1.00329073125894,21821,S21821,-,21821,1991-087A,P,P,Raduga,1991 Dec 19,S21824,VVKOV,SU,1991 Dec 19 1817?,In Earth orbit,-,2026 May  5 ,    1435.284 ,   35755, ,   35786, , 13.40 , ,GEO/ID,21821
3.0,GENERATED VIA SPACE-TRACK.ORG API,2026-05-05T10:20:49,18 SPCS,SUPERBIRD 6,2004-011A,EARTH,TEME,UTC,SGP4,2026-05-04T21:50:07.882080,0.99464261,0.00295281,13.4092,17.9322,39.7343,144.0167,0,U,28218,999,8001,0.00000000000000,-0.00000076,0.0000000000000,42392.64,1447.756,36139.683,35889.328,PAYLOAD,LARGE,JPN,2004-04-16,AFETR,,5174649,322145681,0 SUPERBIRD 6,1 28218U 04011A   26124.90981345 -.00000076  00000-0  00000-0 0  9995,2 28218  13.4092  17.9322 0029528  39.7343 144.0167  0.99464261 80014,28218,S28218,-,28218,2004-011A,P,P,Superbird A2,2004 Apr 16,S28219,SKPJ,J,2004 Apr 16 0115,In Earth orbit,-,2026 May  4 ,    1447.756 ,   35889, ,   36139, , 13.41 , ,GEO/ID,28218
3.0,GENERATED VIA SPACE-TRACK.ORG API,2026-05-06T14:46:56,18 SPCS,SATCOM C1,1990-100A,EARTH,TEME,UTC,SGP4,2026-05-06T11:34:34.621824,0.99182962,0.0014497,13.4148,15.6581,18.1987,104.2646,0,U,20945,999,12657,0.00000000000000,-0.00000113,0.0000000000000,42472.758,1451.862,36156.195,36033.05,PAYLOAD,LARGE,US,1990-11-20,FRGUI,,5177320,322301397,0 SATCOM C1,1 20945U 90100A   26126.48234516 -.00000113  00000-0  00000+0 0  9995,2 20945  13.4148  15.6581 0014497  18.1987 104.2646  0.99182962126578,20945,S20945,-,20945,1990-100A,P,P      G,Satcom C1,1990 Nov 20,S20948,SESSAP,US,1990 Nov 20 2330,In Earth orbit,-,2026 May  2 ,    1451.835 ,   36032, ,   36155, , 13.41 , ,GEO/ID,20945
3.0,GENERATED VIA SPACE-TRACK.ORG API,2026-05-06T02:32:52,18 SPCS,GALAXY 5,1992-013A,EARTH,TEME,UTC,SGP4,2026-05-05T21:19:03.984384,0.99285592,0.00136064,13.4335,18.6545,87.2398,140.0752,0,U,21906,999,4582,0.00000000000000,0.00000080,0.0000000000000,42443.484,1450.361,36123.099,36007.598,PAYLOAD,LARGE,US,1992-03-14,AFETR,,5176277,322215081,0 GALAXY 5,1 21906U 92013A   26125.88824056  .00000080  00000-0  00000-0 0  9998,2 21906  13.4335  18.6545 0013606  87.2398 140.0752  0.99285592 45828,21906,S21906,-,21906,1992-013A,P,P,Galaxy 5,1992 Mar 14,S21907,SESINTU,US,1992 Mar 14 0029,In Earth orbit,-,2026 May  4 ,    1450.365 ,   36007, ,   36122, , 13.43 , ,GEO/ID,21906
3.0,GENERATED VIA SPACE-TRACK.ORG API,2026-05-06T14:56:52,18 SPCS,DFH-3 2,1997-021A,EARTH,TEME,UTC,SGP4,2026-05-06T11:50:15.853056,1.0024618,0.0006285,13.4716,14.118,91.3047,60.9751,0,U,24798,999,10610,0.00000000000000,-0.00000363,0.0000000000000,42171.911,1436.464,35820.282,35767.271,PAYLOAD,LARGE,PRC,1997-05-11,XSC,,5177539,322306169,0 DFH-3 2,1 24798U 97021A   26126.49323904 -.00000363  00000-0  00000+0 0  9992,2 24798  13.4716  14.1180 0006285  91.3047  60.9751  1.00246180106102,24798,S24798,-,24798,1997-021A,P,P,Zhongxing 6,1997 May 11,S24799,CHISAE,CN,1997 May 11 1640,In Earth orbit,-,2026 May  4 ,    1436.451 ,   35767, ,   35819, , 13.47 , ,GEO/I,24798
3.0,GENERATED VIA SPACE-TRACK.ORG API,2026-05-06T14:56:52,18 SPCS,INTELSAT 605,1991-055A,EARTH,TEME,UTC,SGP4,2026-05-06T07:34:37.529760,0.99322854,0.0001703,13.5295,17.8498,259.3705,305.2204,0,U,21653,999,12651,0.00000000000000,0.00000048,0.0000000000000,42432.867,1449.817,36061.959,36047.506,PAYLOAD,MEDIUM,ITSO,1991-08-14,FRGUI,,5177455,322304053,0 INTELSAT 605,1 21653U 91055A   26126.31571215  .00000048  00000-0  00000+0 0  9990,2 21653  13.5295  17.8498 0001703 259.3705 305.2204  0.99322854126516,21653,S21653,-,21653,1991-055A,P,P,INTELSAT 605,1991 Aug 14,S21654,SESINTU,US,1991 Aug 14 2337,In Earth orbit,-,2026 May  5 ,    1449.819 ,   36047, ,   36062, , 13.53 , ,GEO/ID,21653
3.0,GENERATED VIA SPACE-TRACK.ORG API,2026-05-06T14:56:52,18 SPCS,TELSTAR 4 (TELSTAR 402R),1995-049A,EARTH,TEME,UTC,SGP4,2026-05-06T05:07:15.371040,1.00286869,0.000401,13.5534,12.9991,352.7596,204.1096,0,U,23670,999,11208,0.00000000000000,-0.00000192,0.0000000000000,42160.504,1435.881,35799.275,35765.463,PAYLOAD,LARGE,US,1995-09-24,FRGUI,,5177515,322305304,0 TELSTAR 4 (TELSTAR 402R),1 23670U 95049A   26126.21337235 -.00000192  00000-0  00000+0 0  9990,2 23670  13.5534  12.9991 0004010 352.7596 204.1096  1.00286869112088,23670,S23670,-,23670,1995-049A,P,P,Telstar 4,1995 Sep 24,S23671,TSKYB,US,1995 Sep 24 0026,In Earth orbit,-,2026 May  4 ,    1435.876 ,   35765, ,   35799, , 13.55 , ,GEO/I,23670
3.0,GENERATED VIA SPACE-TRACK.ORG API,2026-05-06T14:56:52,18 SPCS,GORIZONT 25,1992-017A,EARTH,TEME,UTC,SGP4,2026-05-06T11:59:15.022752,0.99855511,0.0024792,13.5535,342.9066,112.6372,79.1425,0,U,21922,999,12452,0.00000000000000,-0.00000358,0.0000000000000,42281.834,1442.084,36008.524,35798.874,PAYLOAD,LARGE,CIS,1992-04-02,TTMTR,,5177461,322304630,0 GORIZONT 25,1 21922U 92017A   26126.49947943 -.00000358  00000-0  00000+0 0  9997,2 21922  13.5535 342.9066 0024792 112.6372  79.1425  0.99855511124521,21922,S21922,-,21922,1992-017A,P,P,Gorizont,1992 Apr  2,S21925,KS,RU,1992 Apr  2 0827?,In Earth orbit,-,2026 May  4 ,    1442.074 ,   35798, ,   36008, , 13.55 , ,GEO/ID,21922
3.0,GENERATED VIA SPACE-TRACK.ORG API,2026-05-06T14:46:56,18 SPCS,SBS 4,1984-093B,EARTH,TEME,UTC,SGP4,2026-05-06T06:21:34.677216,0.98764373,0.0007799,13.5919,342.0923,103.7837,246.9838,0,U,15235,999,4556,0.00000000000000,-0.00000139,0.0000000000000,42592.68,1458.016,36247.763,36181.327,PAYLOAD,LARGE,US,1984-08-30,AFETR,,5177273,322300776,0 SBS 4,1 15235U 84093B   26126.26498469 -.00000139  00000-0  00000+0 0  9998,2 15235  13.5919 342.0923 0007799 103.7837 246.9838  0.98764373 45567,15235,S15235,-,15235,1984-093B,P,P ---S-,HGS-5,1984 Aug 30,S15245,SESINTU,US,1984 Aug 30 2128,In Earth orbit,-,2026 May  5 ,    1458.021 ,   36181, ,   36247, , 13.59 , ,GEO/ID,15235
3.0,GENERATED VIA SPACE-TRACK.ORG API,2026-05-06T10:08:52,18 SPCS,COSMOS 2209,1992-059A,EARTH,TEME,UTC,SGP4,2026-05-05T23:15:05.417280,1.00220411,0.0014657,13.6152,342.9523,328.6452,219.3934,0,U,22112,999,12319,0.00000000000000,-0.00000282,0.0000000000000,42179.14,1436.833,35862.827,35739.183,PAYLOAD,LARGE,CIS,1992-09-10,TTMTR,,5176958,322264328,0 COSMOS 2209,1 22112U 92059A   26125.96881270 -.00000282  00000-0  00000-0 0  9993,2 22112  13.6152 342.9523 0014657 328.6452 219.3934  1.00220411123197,22112,S22112,-,22112,1992-059A,P,P,Kosmos-2209,1992 Sep 10,S22115,PVO,RU,1992 Sep 11 0730?,In Earth orbit,-,2026 May  2 ,    1436.819 ,   35738, ,   35863, , 13.62 , ,GEO/ID,22112
3.0,GENERATED VIA SPACE-TRACK.ORG API,2026-05-06T14:56:52,18 SPCS,ARABSAT 1D (ANIK D2),1984-113B,EARTH,TEME,UTC,SGP4,2026-05-06T10:21:11.322720,0.98908535,0.0026673,13.6179,341.9624,26.6528,144.1204,0,U,15383,999,11443,0.00000000000000,-0.00000259,0.0000000000000,42551.283,1455.891,36286.645,36059.651,PAYLOAD,LARGE,AB,1984-11-08,AFETR,,5177369,322301978,0 ARABSAT 1D (ANIK D2),1 15383U 84113B   26126.43138105 -.00000259  00000-0  00000+0 0  9995,2 15383  13.6179 341.9624 0026673  26.6528 144.1204  0.98908535114437,15383,S15383,-,15383,1984-113B,P,P ---S-,Arabsat 1D,1984 Nov  8,S15387,ARAB,I-ARAB,1984 Nov  9 2152,In Earth orbit,-,2026 May  4 ,    1455.882 ,   36059, ,   36286, , 13.62 , ,GEO/ID,15383
3.0,GENERATED VIA SPACE-TRACK.ORG API,2026-05-06T14:46:56,18 SPCS,GALAXY 1,1983-065A,EARTH,TEME,UTC,SGP4,2026-05-06T11:07:51.657312,1.0012206,0.0002566,13.6294,341.985,329.3397,16.9125,0,U,14158,999,4620,0.00000000000000,-0.00000287,0.0000000000000,42206.758,1438.244,35839.453,35817.792,PAYLOAD,LARGE,US,1983-06-28,AFETR,,5177258,322300588,0 GALAXY 1,1 14158U 83065A   26126.46379233 -.00000287  00000-0  00000+0 0  9992,2 14158  13.6294 341.9850 0002566 329.3397  16.9125  1.00122060 46209,14158,S14158,-,14158,1983-065A,P,P      M,Galaxy 1,1983 Jun 28,S14168,HCIE,US,1983 Jun 28 2332,In Earth orbit,-,2026 May  5 ,    1438.237 ,   35817, ,   35839, , 13.63 , ,GEO/ID,14158
